NORAD_CAT_ID,OBJECT_NAME,OBJECT_TYPE,EPOCH,MEAN_MOTION,ECCENTRICITY,INCLINATION,RA_OF_ASC_NODE,ARG_OF_PERICENTER,MEAN_ANOMALY,BSTAR,MEAN_MOTION_DOT,MEAN_MOTION_DDOT,TLE_LINE0,TLE_LINE1,TLE_LINE2,SEMIMAJOR_AXIS,PERIOD,APOGEE,PERIGEE,DECAYED
52622.0,STARLINK-4008,PAYLOAD,2024-07-18 00:43:10,15.08843029,0.0001035,53.2163,96.0986,89.7365,270.3745,2.1746e-05,5.8e-07,0.0,0 STARLINK-4008,1 52622U 22052AA  24200.02997845  .00000058  00000-0  21746-4 0  9997,2 52622  53.2163  96.0986 0001035  89.7365 270.3745 15.08843029120634,6917.871,95.437,540.452,539.02,0.0
52622.0,STARLINK-4008,PAYLOAD,2024-07-18 10:15:29,15.08835008,0.000111,53.217,94.3142,84.6188,275.4931,-1.213e-05,-4.81e-06,0.0,0 STARLINK-4008,1 52622U 22052AA  24200.42742571 -.00000481  00000-0 -12130-4 0  9994,2 52622  53.2170  94.3142 0001110  84.6188 275.4931 15.08835008120695,6917.896,95.438,540.529,538.993,0.0
52622.0,STARLINK-4008,PAYLOAD,2024-07-18 21:23:11,15.08837321,0.0001407,53.2188,92.2329,89.1205,270.9948,1.2281e-05,-9.2e-07,0.0,0 STARLINK-4008,1 52622U 22052AA  24200.89110702 -.00000092  00000-0  12281-4 0  9994,2 52622  53.2188  92.2329 0001407  89.1205 270.9948 15.08837321120381,6917.889,95.438,540.727,538.78,0.0
52622.0,STARLINK-4008,PAYLOAD,2024-07-19 02:09:19,15.08854304,0.0001576,53.2189,91.3411,77.6652,282.4517,9.4656e-05,1.219e-05,0.0,0 STARLINK-4008,1 52622U 22052AA  24201.08981407  .00001219  00000-0  94656-4 0  9991,2 52622  53.2189  91.3411 0001576  77.6652 282.4517 15.08854304120794,6917.837,95.437,540.792,538.611,0.0
52622.0,STARLINK-4008,PAYLOAD,2024-07-19 10:06:16,15.08840832,0.0001368,53.2187,89.8508,88.9419,271.173,-1.6712e-06,-3.15e-06,0.0,0 STARLINK-4008,1 52622U 22052AA  24201.42102345 -.00000315  00000-0 -16712-5 0  9991,2 52622  53.2187  89.8508 0001368  88.9419 271.1730 15.08840832120845,6917.878,95.438,540.689,538.796,0.0
52622.0,STARLINK-4008,PAYLOAD,2024-07-19 22:49:21,15.0883343,0.0001199,53.218,87.4729,86.604,273.5089,0.0002281,3.344e-05,0.0,0 STARLINK-4008,1 52622U 22052AA  24201.95094390  .00003344  00000-0  22810-3 0  9996,2 52622  53.2180  87.4729 0001199  86.6040 273.5089 15.08833430120540,6917.9,95.438,540.595,538.936,0.0
52622.0,STARLINK-4008,PAYLOAD,2024-07-20 09:57:02,15.08845969,0.0001222,53.2177,85.3925,91.8292,268.284,0.00018802,2.706e-05,0.0,0 STARLINK-4008,1 52622U 22052AA  24202.41461694  .00002706  00000-0  18802-3 0  9990,2 52622  53.2177  85.3925 0001222  91.8292 268.2840 15.08845969120619,6917.862,95.437,540.573,538.882,0.0
52622.0,STARLINK-4008,PAYLOAD,2024-07-20 21:04:45,15.08842383,0.0001715,53.2196,83.3126,98.3683,261.7503,0.00010153,1.328e-05,0.0,0 STARLINK-4008,1 52622U 22052AA  24202.87830374  .00001328  00000-0  10153-3 0  9995,2 52622  53.2196  83.3126 0001715  98.3683 261.7503 15.08842383121065,6917.873,95.437,540.925,538.552,0.0
52622.0,STARLINK-4008,PAYLOAD,2024-07-20 22:40:08,15.08844457,0.0001697,53.2197,83.0139,103.3673,256.7509,0.00012505,1.703e-05,0.0,0 STARLINK-4008,1 52622U 22052AA  24202.94454130  .00001703  00000-0  12505-3 0  9995,2 52622  53.2197  83.0139 0001697 103.3673 256.7509 15.08844457120694,6917.867,95.437,540.906,538.558,0.0
52622.0,STARLINK-4008,PAYLOAD,2024-07-21 01:50:54,15.08853165,0.0001539,53.2193,82.4185,97.2617,262.8551,5.8364e-05,6.41e-06,0.0,0 STARLINK-4008,1 52622U 22052AA  24203.07701690  .00000641  00000-0  58364-4 0  9990,2 52622  53.2193  82.4185 0001539  97.2617 262.8551 15.08853165121094,6917.84,95.437,540.77,538.64,0.0
52622.0,STARLINK-4008,PAYLOAD,2024-07-21 20:55:32,15.08842168,0.0001448,53.2174,78.848,93.8847,266.2311,2.8396e-05,1.64e-06,0.0,0 STARLINK-4008,1 52622U 22052AA  24203.87190464  .00000164  00000-0  28396-4 0  9991,2 52622  53.2174  78.8480 0001448  93.8847 266.2311 15.08842168121213,6917.874,95.437,540.74,538.737,0.0
52622.0,STARLINK-4008,PAYLOAD,2024-07-21 22:30:55,15.08841589,0.0001632,53.2183,78.5543,100.8653,259.2523,4.2577e-05,3.9e-06,0.0,0 STARLINK-4008,1 52622U 22052AA  24203.93814501  .00000390  00000-0  42577-4 0  9991,2 52622  53.2183  78.5543 0001632 100.8653 259.2523 15.08841589120840,6917.876,95.437,540.87,538.612,0.0
52622.0,STARLINK-4008,PAYLOAD,2024-07-22 01:41:41,15.08843039,0.0001612,53.2179,77.9583,99.9278,260.1897,5.976e-05,6.63e-06,0.0,0 STARLINK-4008,1 52622U 22052AA  24204.07062353  .00000663  00000-0  59760-4 0  9992,2 52622  53.2179  77.9583 0001612  99.9278 260.1897 15.08843039120860,6917.871,95.437,540.851,538.621,0.0
52622.0,STARLINK-4008,PAYLOAD,2024-07-22 22:21:42,15.0884598,0.0001373,53.218,74.0924,98.0022,262.1125,3.6925e-05,3e-06,0.0,0 STARLINK-4008,1 52622U 22052AA  24204.93174111  .00000300  00000-0  36925-4 0  9999,2 52622  53.2180  74.0924 0001373  98.0022 262.1125 15.08845980120997,6917.862,95.437,540.677,538.777,0.0
52622.0,STARLINK-4008,PAYLOAD,2024-07-23 07:54:00,15.08849865,0.0001365,53.2176,72.3091,82.3433,277.7714,9.3105e-05,1.195e-05,0.0,0 STARLINK-4008,1 52622U 22052AA  24205.32917733  .00001195  00000-0  93105-4 0  9994,2 52622  53.2176  72.3091 0001365  82.3433 277.7714 15.08849865121051,6917.85,95.437,540.66,538.771,0.0
52622.0,STARLINK-4008,PAYLOAD,2024-07-24 14:06:22,15.08829297,0.0001495,53.2185,66.6641,83.2034,276.9128,-7.5627e-05,-1.491e-05,0.0,0 STARLINK-4008,1 52622U 22052AA  24206.58775810 -.00001491  00000-0 -75627-4 0  9991,2 52622  53.2185  66.6641 0001495  83.2034 276.9128 15.08829297121247,6917.913,95.438,540.812,538.744,0.0
52622.0,STARLINK-4008,PAYLOAD,2024-07-24 22:03:17,15.08840387,0.0001473,53.2176,65.1767,79.7374,280.3784,4.3628e-05,4.06e-06,0.0,0 STARLINK-4008,1 52622U 22052AA  24206.91895088  .00000406  00000-0  43628-4 0  9997,2 52622  53.2176  65.1767 0001473  79.7374 280.3784 15.08840387121298,6917.879,95.438,540.763,538.725,0.0
52622.0,STARLINK-4008,PAYLOAD,2024-07-25 01:14:03,15.08843261,0.0001227,53.2162,64.58,98.7775,261.3356,0.00011188,1.493e-05,0.0,0 STARLINK-4008,1 52622U 22052AA  24207.05142954  .00001493  00000-0  11188-3 0  9992,2 52622  53.2162  64.5800 0001227  98.7775 261.3356 15.08843261121699,6917.87,95.437,540.584,538.887,0.0
52622.0,STARLINK-4008,PAYLOAD,2024-07-25 21:54:04,15.08843853,0.0001238,53.2166,60.714,97.1493,262.9639,7.0006e-05,8.27e-06,0.0,0 STARLINK-4008,1 52622U 22052AA  24207.91255295  .00000827  00000-0  70006-4 0  9995,2 52622  53.2166  60.7140 0001238  97.1493 262.9639 15.08843853121441,6917.869,95.437,540.59,538.877,0.0
52622.0,STARLINK-4008,PAYLOAD,2024-07-26 13:47:55,15.08846502,0.0001233,53.2167,57.7401,96.1865,263.9268,7.406e-05,8.91e-06,0.0,0 STARLINK-4008,1 52622U 22052AA  24208.57494891  .00000891  00000-0  74060-4 0  9990,2 52622  53.2167  57.7401 0001233  96.1865 263.9268 15.08846502121549,6917.861,95.437,540.578,538.873,0.0
52622.0,STARLINK-4008,PAYLOAD,2024-07-26 20:09:27,15.0884882,0.0001172,53.216,56.5507,105.165,254.9472,9.1662e-05,1.172e-05,0.0,0 STARLINK-4008,1 52622U 22052AA  24208.83990486  .00001172  00000-0  91662-4 0  9990,2 52622  53.2160  56.5507 0001172 105.1650 254.9472 15.08848820121587,6917.853,95.437,540.529,538.908,0.0
52622.0,STARLINK-4008,PAYLOAD,2024-07-26 21:44:50,15.08851312,0.0001326,53.2155,56.2539,89.1492,270.9652,0.00012604,1.719e-05,0.0,0 STARLINK-4008,1 52622U 22052AA  24208.90614274  .00001719  00000-0  12604-3 0  9991,2 52622  53.2155  56.2539 0001326  89.1492 270.9652 15.08851312121970,6917.846,95.437,540.628,538.794,0.0
52622.0,STARLINK-4008,PAYLOAD,2024-07-27 21:35:39,15.08835527,0.0001463,53.2175,51.7934,85.6388,274.4771,-1.3113e-05,-4.97e-06,0.0,0 STARLINK-4008,1 52622U 22052AA  24209.89975763 -.00000497  00000-0 -13113-4 0  9994,2 52622  53.2175  51.7934 0001463  85.6388 274.4771 15.08835527121744,6917.894,95.438,540.771,538.747,0.0
52622.0,STARLINK-4008,PAYLOAD,2024-07-28 13:29:29,15.088797,0.0001394,53.2176,48.8196,82.9223,277.1928,-0.00051914,-8.55e-05,0.0,0 STARLINK-4008,1 52622U 22052AA  24210.56214797 -.00008550  00000-0 -51914-3 0  9991,2 52622  53.2176  48.8196 0001394  82.9223 277.1928 15.08879700122222,6917.759,95.435,540.588,538.66,0.0
52622.0,STARLINK-4008,PAYLOAD,2024-07-28 19:51:02,15.08851005,0.0001324,53.2181,47.6304,95.052,265.0623,4.6528e-05,4.53e-06,0.0,0 STARLINK-4008,1 52622U 22052AA  24210.82710697  .00000453  00000-0  46528-4 0  9998,2 52622  53.2181  47.6304 0001324  95.0520 265.0623 15.08851005122264,6917.847,95.437,540.628,538.796,0.0
52622.0,STARLINK-4008,PAYLOAD,2024-07-28 21:26:25,15.08852406,0.0001351,53.2185,47.3325,97.0972,263.0173,5.8806e-05,6.48e-06,0.0,0 STARLINK-4008,1 52622U 22052AA  24210.89334579  .00000648  00000-0  58806-4 0  9994,2 52622  53.2185  47.3325 0001351  97.0972 263.0173 15.08852406121893,6917.842,95.437,540.642,538.773,0.0
52622.0,STARLINK-4008,PAYLOAD,2024-07-29 19:41:49,15.08841185,0.0001336,53.2193,43.1703,90.088,270.0265,0.00014529,2.025e-05,0.0,0 STARLINK-4008,1 52622U 22052AA  24211.82071218  .00002025  00000-0  14529-3 0  9990,2 52622  53.2193  43.1703 0001336  90.0880 270.0265 15.08841185122411,6917.877,95.437,540.666,538.818,0.0
52622.0,STARLINK-4008,PAYLOAD,2024-07-30 11:35:41,15.08838557,0.0001422,53.2192,40.1967,84.6698,275.4456,-1.3481e-05,-5.02e-06,0.0,0 STARLINK-4008,1 52622U 22052AA  24212.48312007 -.00000502  00000-0 -13481-4 0  9994,2 52622  53.2192  40.1967 0001422  84.6698 275.4456 15.08838557122512,6917.885,95.438,540.734,538.766,0.0
52622.0,STARLINK-4008,PAYLOAD,2024-07-31 13:01:51,15.08852905,0.0001432,53.2204,35.4405,92.7511,267.3645,-0.00028989,-4.9e-05,0.0,0 STARLINK-4008,1 52622U 22052AA  24213.54296267 -.00004900  00000-0 -28989-3 0  9995,2 52622  53.2204  35.4405 0001432  92.7511 267.3645 15.08852905122675,6917.841,95.437,540.697,538.715,0.0
52622.0,STARLINK-4008,PAYLOAD,2024-07-31 19:23:24,15.0883989,0.0001293,53.2183,34.2525,94.5733,265.5407,-6.6985e-05,-1.354e-05,0.0,0 STARLINK-4008,1 52622U 22052AA  24213.80792168 -.00001354  00000-0 -66985-4 0  9994,2 52622  53.2183  34.2525 0001293  94.5733 265.5407 15.08839890122339,6917.881,95.438,540.64,538.851,0.0
